0 IRIDIUM 33 DEB
1 34529U 97051HW  13281.80217520  .00000438  00000-0  14228-3 0  7549
2 34529 086.3644 122.1862 0010691 049.0556 079.2847 14.36634283242740
0 IRIDIUM 33 DEB
1 34529U 97051HW  13283.82184154  .00000480  00000-0  15657-3 0  7554
2 34529 086.3640 121.3313 0010493 043.1549 084.0582 14.36637686243038
0 IRIDIUM 33 DEB
1 34529U 97051HW  13286.12279747  .00000492  00000-0  16043-3 0  7567
2 34529 086.3637 120.3575 0010223 036.2598 103.7244 14.36639771243368
0 IRIDIUM 33 DEB
1 34529U 97051HW  13288.54359966  .00000639  00000-0  21050-3 0  7575
2 34529 086.3636 119.3326 0009952 028.8642 023.3523 14.36642859243710
0 IRIDIUM 33 DEB
1 34529U 97051HW  13290.71733625  .00000596  00000-0  19598-3 0  7582
2 34529 086.3637 118.4123 0009699 022.0599 105.4229 14.36645706244025
0 IRIDIUM 33 DEB
1 34529U 97051HW  13292.73645925  .00000669  00000-0  22068-3 0  7599
2 34529 086.3640 117.5574 0009448 015.5524 108.0754 14.36647433244319
0 IRIDIUM 33 DEB
1 34529U 97051HW  13294.75723712  .00000737  00000-0  24372-3 0  7602
2 34529 086.3640 116.7017 0009198 008.8183 119.5222 14.36650225244602
